FLOCK 4G-5              
1 62663U 25009BG  26068.45638436  .00011278  00000+0  40688-3 0  9997
2 62663  97.4058 151.2478 0002094 314.5072  45.5996 15.28679529 63699
STARLINK-34025          
1 63824U 25092W   26068.32904435  .00031444  00000+0  11471-2 0  9994
2 63824  42.9976 174.2202 0001362 270.1962  89.8733 15.27584421 48503
